<svg width="600" height="100" viewBox="0 0 600 100" xmlns="http://www.w3.org/2000/svg">
  <rect width="600" height="100" fill="white"/>
  <text x="10" y="40" font-family="monospace" font-size="14">
    YBBN 191030Z 27015KT 9999 FEW030 SCT045 23/15 Q1013
  </text>
  <text x="10" y="70" font-family="monospace" font-size="12" fill="#666">
    Location  Time   Wind  Vis   Cloud    Temp/DP  QNH
  </text>
</svg> 